start=new Date('2021-10-25T00:00:00.000Z').valueOf();
sats=[{"OBJECT_TYPE":"PAYLOAD","FILE":"3182197","REF_FRAME":"TEME","DECAY_DATE":null,"MEAN_MOTION_DDOT":"0.0000000000000","SITE":"AFETR","ECCENTRICITY":"0.00015010","SEMIMAJOR_AXIS":"6925.366","RA_OF_ASC_NODE":"287.7235","ELEMENT_SET_NO":"999","OBJECT_NAME":"STARLINK-1611","INCLINATION":"53.0531","TLE_LINE1":"1 46147U 20057AG  21297.26954062 -.00000202  00000-0  53335-5 0  9990","RCS_SIZE":"LARGE","PERIAPSIS":"546.192","PERIOD":"95.593","NORAD_CAT_ID":"46147","REV_AT_EPOCH":"6655","EPOCH":"2021-10-24T06:28:08.309568","MEAN_MOTION":"15.06394205","MEAN_MOTION_DOT":"-0.00000202","ARG_OF_PERICENTER":"65.0386","CLASSIFICATION_TYPE":"U","GP_ID":"188070281","COUNTRY_CODE":"US","MEAN_ANOMALY":"295.0759","TIME_SYSTEM":"UTC","EPHEMERIS_TYPE":"0","CENTER_NAME":"EARTH","TLE_LINE2":"2 46147  53.0531 287.7235 0001501  65.0386 295.0759 15.06394205 66554","OBJECT_ID":"2020-057AG","MEAN_ELEMENT_THEORY":"SGP4","BSTAR":"0.00000533350000","APOAPSIS":"548.271","LAUNCH_DATE":"2020-08-18"},{"RCS_SIZE":"LARGE","NORAD_CAT_ID":"46148","PERIOD":"95.592","PERIAPSIS":"546.048","INCLINATION":"53.0533","OBJECT_NAME":"STARLINK-1616","TLE_LINE1":"1 46148U 20057AH  21297.60680359  .00001857  00000-0  14351-3 0  9993","SITE":"AFETR","MEAN_MOTION_DDOT":"0.0000000000000","REF_FRAME":"TEME","DECAY_DATE":null,"FILE":"3182768","SEMIMAJOR_AXIS":"6925.332","RA_OF_ASC_NODE":"266.1984","ELEMENT_SET_NO":"999","ECCENTRICITY":"0.00016580","OBJECT_TYPE":"PAYLOAD","APOAPSIS":"548.345","BSTAR":"0.00014351000000","LAUNCH_DATE":"2020-08-18","TIME_SYSTEM":"UTC","GP_ID":"188105609","MEAN_ANOMALY":"285.7829","COUNTRY_CODE":"US","CLASSIFICATION_TYPE":"U","MEAN_MOTION_DOT":"0.00001857","ARG_OF_PERICENTER":"74.3343","OBJECT_ID":"2020-057AH","MEAN_ELEMENT_THEORY":"SGP4","TLE_LINE2":"2 46148  53.0533 266.1984 0001658  74.3343 285.7829 15.06405531 65624","CENTER_NAME":"EARTH","EPHEMERIS_TYPE":"0","EPOCH":"2021-10-24T14:33:47.830176","MEAN_MOTION":"15.06405531","REV_AT_EPOCH":"6562"},{"OBJECT_TYPE":"PAYLOAD","SEMIMAJOR_AXIS":"6925.343","RA_OF_ASC_NODE":"266.1427","ELEMENT_SET_NO":"999","ECCENTRICITY":"0.00016610","MEAN_MOTION_DDOT":"0.0000000000000","SITE":"AFETR","FILE":"3182768","DECAY_DATE":null,"REF_FRAME":"TEME","TLE_LINE1":"1 46149U 20057AJ  21297.62154641  .00001149  00000-0  96004-4 0  9996","INCLINATION":"53.0544","OBJECT_NAME":"STARLINK-1620","PERIOD":"95.592","NORAD_CAT_ID":"46149","PERIAPSIS":"546.058","RCS_SIZE":"LARGE","REV_AT_EPOCH":"6690","MEAN_MOTION":"15.06401812","EPOCH":"2021-10-24T14:55:01.609824","TLE_LINE2":"2 46149  53.0544 266.1427 0001661  70.2803 289.8365 15.06401812 66909","OBJECT_ID":"2020-057AJ","MEAN_ELEMENT_THEORY":"SGP4","EPHEMERIS_TYPE":"0","CENTER_NAME":"EARTH","TIME_SYSTEM":"UTC","ARG_OF_PERICENTER":"70.2803","MEAN_MOTION_DOT":"0.00001149","CLASSIFICATION_TYPE":"U","GP_ID":"188105860","COUNTRY_CODE":"US","MEAN_ANOMALY":"289.8365","LAUNCH_DATE":"2020-08-18","APOAPSIS":"548.358","BSTAR":"0.00009600400000"},{"MEAN_MOTION":"15.06395504","EPOCH":"2021-10-24T16:22:36.527808","REV_AT_EPOCH":"6536","LAUNCH_DATE":"2020-08-18","BSTAR":"-0.00000677060000","APOAPSIS":"548.276","EPHEMERIS_TYPE":"0","CENTER_NAME":"EARTH","TLE_LINE2":"2 46150  53.0542 285.8587 0001514  76.7958 283.3199 15.06395504 65366","OBJECT_ID":"2020-057AK","MEAN_ELEMENT_THEORY":"SGP4","MEAN_MOTION_DOT":"-0.00000382","ARG_OF_PERICENTER":"76.7958","GP_ID":"188104608","CLASSIFICATION_TYPE":"U","COUNTRY_CODE":"US","MEAN_ANOMALY":"283.3199","TIME_SYSTEM":"UTC","ECCENTRICITY":"0.00015140","SEMIMAJOR_AXIS":"6925.362","ELEMENT_SET_NO":"999","RA_OF_ASC_NODE":"285.8587","FILE":"3182768","REF_FRAME":"TEME","DECAY_DATE":null,"MEAN_MOTION_DDOT":"0.0000000000000","SITE":"AFETR","OBJECT_TYPE":"PAYLOAD","PERIAPSIS":"546.179","PERIOD":"95.592","NORAD_CAT_ID":"46150","RCS_SIZE":"LARGE","TLE_LINE1":"1 46150U 20057AK  21297.68236722 -.00000382  00000-0 -67706-5 0  9993","OBJECT_NAME":"STARLINK-1629","INCLINATION":"53.0542"},{"SEMIMAJOR_AXIS":"6925.330","RA_OF_ASC_NODE":"267.4682","ELEMENT_SET_NO":"999","ECCENTRICITY":"0.00015830","SITE":"AFETR","MEAN_MOTION_DDOT":"0.0000000000000","REF_FRAME":"TEME","DECAY_DATE":null,"FILE":"3182308","OBJECT_TYPE":"PAYLOAD","NORAD_CAT_ID":"46151","PERIOD":"95.592","PERIAPSIS":"546.099","RCS_SIZE":"LARGE","TLE_LINE1":"1 46151U 20057AL  21297.32666536  .00001314  00000-0  10707-3 0  9996","INCLINATION":"53.0536","OBJECT_NAME":"STARLINK-1631","MEAN_MOTION":"15.06406124","EPOCH":"2021-10-24T07:50:23.887104","REV_AT_EPOCH":"6624","LAUNCH_DATE":"2020-08-18","APOAPSIS":"548.291","BSTAR":"0.00010707000000","OBJECT_ID":"2020-057AL","MEAN_ELEMENT_THEORY":"SGP4","TLE_LINE2":"2 46151  53.0536 267.4682 0001583  70.2522 289.8638 15.06406124 66242","CENTER_NAME":"EARTH","EPHEMERIS_TYPE":"0","TIME_SYSTEM":"UTC","COUNTRY_CODE":"US","GP_ID":"188073211","CLASSIFICATION_TYPE":"U","MEAN_ANOMALY":"289.8638","MEAN_MOTION_DOT":"0.00001314","ARG_OF_PERICENTER":"70.2522"},{"EPOCH":"2021-10-24T16:59:45.905280","MEAN_MOTION":"15.06402340","REV_AT_EPOCH":"6536","APOAPSIS":"548.247","BSTAR":"0.00009588700000","LAUNCH_DATE":"2020-08-18","TIME_SYSTEM":"UTC","GP_ID":"188106110","MEAN_ANOMALY":"284.3939","COUNTRY_CODE":"US","CLASSIFICATION_TYPE":"U","ARG_OF_PERICENTER":"75.7217","MEAN_MOTION_DOT":"0.00001147","MEAN_ELEMENT_THEORY":"SGP4","OBJECT_ID":"2020-057AM","TLE_LINE2":"2 46152  53.0545 285.7494 0001503  75.7217 284.3939 15.06402340 65362","CENTER_NAME":"EARTH","EPHEMERIS_TYPE":"0","SITE":"AFETR","MEAN_MOTION_DDOT":"0.0000000000000","DECAY_DATE":null,"REF_FRAME":"TEME","FILE":"3182768","ELEMENT_SET_NO":"999","SEMIMAJOR_AXIS":"6925.341","RA_OF_ASC_NODE":"285.7494","ECCENTRICITY":"0.00015030","OBJECT_TYPE":"PAYLOAD","RCS_SIZE":"LARGE","NORAD_CAT_ID":"46152","PERIOD":"95.592","PERIAPSIS":"546.166","INCLINATION":"53.0545","OBJECT_NAME":"STARLINK-1634","TLE_LINE1":"1 46152U 20057AM  21297.70817020  .00001147  00000-0  95887-4 0  9992"},{"PERIOD":"95.592","NORAD_CAT_ID":"46153","PERIAPSIS":"546.008","RCS_SIZE":"LARGE","TLE_LINE1":"1 46153U 20057AN  21297.61049403 -.00000276  00000-0  34456-6 0  9995","INCLINATION":"53.0547","OBJECT_NAME":"STARLINK-1636","SEMIMAJOR_AXIS":"6925.357","RA_OF_ASC_NODE":"266.1919","ELEMENT_SET_NO":"999","ECCENTRICITY":"0.00017530","MEAN_MOTION_DDOT":"0.0000000000000","SITE":"AFETR","FILE":"3182768","REF_FRAME":"TEME","DECAY_DATE":null,"OBJECT_TYPE":"PAYLOAD","LAUNCH_DATE":"2020-08-18","APOAPSIS":"548.436","BSTAR":"0.00000034456000","TLE_LINE2":"2 46153  53.0547 266.1919 0001753  68.6424 291.4752 15.06397149 65629","OBJECT_ID":"2020-057AN","MEAN_ELEMENT_THEORY":"SGP4","EPHEMERIS_TYPE":"0","CENTER_NAME":"EARTH","TIME_SYSTEM":"UTC","MEAN_MOTION_DOT":"-0.00000276","ARG_OF_PERICENTER":"68.6424","GP_ID":"188106361","CLASSIFICATION_TYPE":"U","COUNTRY_CODE":"US","MEAN_ANOMALY":"291.4752","MEAN_MOTION":"15.06397149","EPOCH":"2021-10-24T14:39:06.684192","REV_AT_EPOCH":"6562"},{"MEAN_MOTION_DOT":"0.00002357","ARG_OF_PERICENTER":"78.6998","COUNTRY_CODE":"US","GP_ID":"188073297","CLASSIFICATION_TYPE":"U","MEAN_ANOMALY":"281.4179","TIME_SYSTEM":"UTC","EPHEMERIS_TYPE":"0","CENTER_NAME":"EARTH","TLE_LINE2":"2 46154  53.0546 277.0382 0001679  78.6998 281.4179 15.06399956 66113","MEAN_ELEMENT_THEORY":"SGP4","OBJECT_ID":"2020-057AP","BSTAR":"0.00017706000000","APOAPSIS":"548.376","LAUNCH_DATE":"2020-08-18","REV_AT_EPOCH":"6611","EPOCH":"2021-10-24T10:07:06.578688","MEAN_MOTION":"15.06399956","OBJECT_NAME":"STARLINK-1642","INCLINATION":"53.0546","TLE_LINE1":"1 46154U 20057AP  21297.42160392  .00002357  00000-0  17706-3 0  9993","RCS_SIZE":"LARGE","PERIAPSIS":"546.051","PERIOD":"95.592","NORAD_CAT_ID":"46154","OBJECT_TYPE":"PAYLOAD","FILE":"3182313","REF_FRAME":"TEME","DECAY_DATE":null,"MEAN_MOTION_DDOT":"0.0000000000000","SITE":"AFETR","ECCENTRICITY":"0.00016790","SEMIMAJOR_AXIS":"6925.349","ELEMENT_SET_NO":"999","RA_OF_ASC_NODE":"277.0382"},{"ECCENTRICITY":"0.00018960","RA_OF_ASC_NODE":"245.1405","SEMIMAJOR_AXIS":"6925.338","ELEMENT_SET_NO":"999","DECAY_DATE":null,"REF_FRAME":"TEME","FILE":"3182768","SITE":"AFETR","MEAN_MOTION_DDOT":"0.0000000000000","OBJECT_TYPE":"PAYLOAD","PERIAPSIS":"545.890","NORAD_CAT_ID":"46155","PERIOD":"95.592","RCS_SIZE":"LARGE","TLE_LINE1":"1 46155U 20057AQ  21297.84454873  .00001115  00000-0  93769-4 0  9995","OBJECT_NAME":"STARLINK-1667","INCLINATION":"53.0532","MEAN_MOTION":"15.06403461","EPOCH":"2021-10-24T20:16:09.010272","REV_AT_EPOCH":"6718","LAUNCH_DATE":"2020-08-18","BSTAR":"0.00009376900000","APOAPSIS":"548.516","CENTER_NAME":"EARTH","EPHEMERIS_TYPE":"0","MEAN_ELEMENT_THEORY":"SGP4","OBJECT_ID":"2020-057AQ","TLE_LINE2":"2 46155  53.0532 245.1405 0001896  73.6036 286.5161 15.06403461 67182","CLASSIFICATION_TYPE":"U","GP_ID":"188105359","COUNTRY_CODE":"US","MEAN_ANOMALY":"286.5161","MEAN_MOTION_DOT":"0.00001115","ARG_OF_PERICENTER":"73.6036","TIME_SYSTEM":"UTC"},{"EPOCH":"2021-10-24T15:16:15.274560","MEAN_MOTION":"15.06401563","REV_AT_EPOCH":"6688","APOAPSIS":"548.247","BSTAR":"-0.00000658680000","LAUNCH_DATE":"2020-08-18","TIME_SYSTEM":"UTC","ARG_OF_PERICENTER":"71.4915","MEAN_MOTION_DOT":"-0.00000380","MEAN_ANOMALY":"288.6237","GP_ID":"188105610","COUNTRY_CODE":"US","CLASSIFICATION_TYPE":"U","TLE_LINE2":"2 46156  53.0531 266.0766 0001499  71.4915 288.6237 15.06401563 66889","MEAN_ELEMENT_THEORY":"SGP4","OBJECT_ID":"2020-057AR","EPHEMERIS_TYPE":"0","CENTER_NAME":"EARTH","MEAN_MOTION_DDOT":"0.0000000000000","SITE":"AFETR","FILE":"3182768","REF_FRAME":"TEME","DECAY_DATE":null,"ELEMENT_SET_NO":"999","SEMIMAJOR_AXIS":"6925.344","RA_OF_ASC_NODE":"266.0766","ECCENTRICITY":"0.00014990","OBJECT_TYPE":"PAYLOAD","RCS_SIZE":"LARGE","PERIOD":"95.592","NORAD_CAT_ID":"46156","PERIAPSIS":"546.171","INCLINATION":"53.0531","OBJECT_NAME":"STARLINK-1545","TLE_LINE1":"1 46156U 20057AR  21297.63628790 -.00000380  00000-0 -65868-5 0  9999"}];
